INTERCOSMOS 24          
1 20261U 89080A   25188.71195048  .00000853  00000+0  24285-3 0  9994
2 20261  82.6046 263.7035 1191284 141.0680 228.2642 12.59070626635964
SL-14 R/B               
1 20262U 89080C   25189.10873818  .00000110  00000+0  26754-4 0  9997
2 20262  82.5950 330.2439 1231145  23.8321 341.5089 12.50315836629150
DELTA 1 R/B             
1 20323U 89089B   25188.94132632  .00000171  00000+0  51203-4 0  9991
2 20323  97.1020  69.9938 0069324 174.4527 185.7455 14.50409786860259
ARIANE 40 R/B           
1 20443U 90005H   25189.18600131  .00000190  00000+0  74255-4 0  9998
2 20443  98.3451 251.6227 0009457 214.1652 145.8929 14.39651224857887
DELTA 2 R/B(1)          
1 20453U 90008B   25189.03292781  .00024648  00000+0  54265-3 0  9996
2 20453  35.6113 309.2277 0136187 189.5118 170.3023 15.33714884888323
COSMOS 2058             
1 20465U 90010A   25188.87160678  .00002550  00000+0  15944-3 0  9991
2 20465  82.4760 288.0439 0009942 103.1409 257.0929 15.08993074905297
SL-14 R/B               
1 20466U 90010B   25189.10066113  .00000347  00000+0  39384-4 0  9995
2 20466  82.5034 137.0530 0020722  30.0476 330.1923 14.83275804913280
SL-14 R/B               
1 20511U 90018B   25188.81622743  .00000287  00000+0  33234-4 0  9999
2 20511  82.5217  91.9416 0016507 172.5627 187.5836 14.81859830886316
HST                     
1 20580U 90037B   25189.24324790  .00004553  00000+0  16644-3 0  9990
2 20580  28.4683 262.1729 0001845 337.0207  23.0305 15.25512511736161
SL-16 R/B               
1 20625U 90046B   25189.17031384 -.00000107  00000+0 -30365-4 0  9996
2 20625  71.0002  91.4286 0016009 310.4113  49.5612 14.14971787814050
COSMOS 2084             
1 20663U 90055A   25189.15936165  .00001612  00000+0  12757-3 0  9991
2 20663  62.7908  88.3569 0057802 156.6862 203.6879 15.03768246899537
SL-6 R/B(2)             
1 20666U 90055D   25188.83806166  .00001504  00000+0  12830-3 0  9997
2 20666  62.7840   5.4800 0023291 196.7958 163.2372 15.02099748901399
SL-8 R/B                
1 20775U 90078B   25189.20418233  .00010874  00000+0  35411-3 0  9999
2 20775  82.9086 109.3905 0401924 110.0641 254.4303 14.78806766773030
SL-8 R/B                
1 21088U 91006B   25189.22223501  .00000112  00000+0  97256-4 0  9993
2 21088  82.9431 351.9041 0022481   3.6366 169.1237 13.77462786730686
OKEAN-3                 
1 21397U 91039A   25189.14050681  .00002417  00000+0  17780-3 0  9993
2 21397  82.5156 213.3960 0016473  84.1856 276.1247 15.02857464849369
COSMOS 2151             
1 21422U 91042A   25188.91260485  .00001554  00000+0  12625-3 0  9999
2 21422  82.4983 319.5004 0013055 160.6163 199.5560 14.98909322826510
SL-14 R/B               
1 21423U 91042B   25188.81881841  .00000285  00000+0  33303-4 0  9991
2 21423  82.4933  89.7848 0016310 330.6330  29.3965 14.81559025816814
ERS-1                   
1 21574U 91050A   25188.99799609  .00000207  00000+0  81477-4 0  9995
2 21574  98.7914 196.0473 0031515 206.1693 153.7903 14.39209702780517
ARIANE 40 R/B           
1 21610U 91050F   25188.86752403  .00000223  00000+0  79604-4 0  9990
2 21610  98.2383 244.7854 0004471  96.0788 264.0912 14.42650279783960
INTERCOSMOS 25          
1 21819U 91086A   25188.88550534  .00000814  00000+0  16300-3 0  9992
2 21819  82.6054  97.9413 1489041 284.3674  59.7067 12.11103322467043
SL-8 R/B                
1 21876U 92008B   25188.80779633  .00000053  00000+0  38625-4 0  9995
2 21876  82.9268  89.9025 0036089  98.1332 323.7874 13.75935300675745
SL-8 R/B                
1 21938U 92020B   25189.16152473  .00000100  00000+0  88173-4 0  9991
2 21938  82.9318 335.3627 0027715 259.8698 273.1608 13.75513880667810
USA 81                  
1 21949U 92023A   25188.93671991  .00000127  00000+0  39566-4 0  9992
2 21949  85.0074 272.6070 0002788  93.1933 266.9578 14.32250838 59753
COSMOS 2219             
1 22219U 92076A   25188.69104385  .00000259  00000+0  16053-3 0  9993
2 22219  71.0596 170.2034 0019326 219.6405 140.3306 14.14035050683749
SL-16 R/B               
1 22220U 92076B   25188.86996462  .00000034  00000+0  40965-4 0  9990
2 22220  71.0010 344.0621 0010834 111.9734  39.9848 14.16807752687150
COSMOS 2221             
1 22236U 92080A   25188.89136887  .00001377  00000+0  12364-3 0  9994
2 22236  82.5051 153.2763 0013073 298.5690  61.4215 14.94944427744202
SL-16 R/B               
1 22285U 92093B   25188.93373835  .00000028  00000+0  38794-4 0  9991
2 22285  71.0211 158.0539 0006040 304.1348  55.9201 14.15402551678525
COSMOS 2228             
1 22286U 92094A   25188.85912640  .00001614  00000+0  14180-3 0  9991
2 22286  82.5190 111.4620 0019934  49.6818 310.6141 14.95791318739445
SL-16 R/B               
1 22566U 93016B   25188.94988132  .00000063  00000+0  56715-4 0  9994
2 22566  71.0087   9.1894 0011435 325.9267  34.1120 14.15264887667540
COSMOS 2242             
1 22626U 93024A   25188.94393684  .00001613  00000+0  14385-3 0  9990
2 22626  82.5201 140.5299 0018177  52.1824 308.1039 14.95238825744123
SL-16 R/B               
1 22803U 93059B   25189.19076580  .00000243  00000+0  14421-3 0  9995
2 22803  70.9891 166.7056 0018754 227.7496 132.2038 14.17179088645150
ARIANE 40 R/B           
1 22830U 93061H   25189.13578019  .00000142  00000+0  68266-4 0  9991
2 22830  98.5261 257.3686 0009525 289.9395  70.0763 14.32673734659330
COSMOS 2278             
1 23087U 94023A   25188.81616043 -.00000225  00000+0 -93251-4 0  9995
2 23087  71.0550 327.3897 0007576  28.5620 331.5916 14.14306840610182
SL-16 R/B               
1 23088U 94023B   25188.83462995  .00000061  00000+0  56193-4 0  9993
2 23088  70.9987 225.0854 0005360 294.4071  65.6492 14.14973336611450
SL-16 R/B               
1 23343U 94074B   25188.87500470  .00000322  00000+0  50205-4 0  9996
2 23343  97.7379 224.2581 0005367 306.2093 227.2075 14.79062148651051
SL-16 R/B               
1 23405U 94077B   25188.91169420  .00000162  00000+0  10736-3 0  9995
2 23405  70.9825 147.4372 0003315 218.5322 141.5564 14.15523114581591
ARIANE 40+ R/B          
1 23561U 95021B   25188.83558049  .00000197  00000+0  77219-4 0  9996
2 23561  98.4828 258.1753 0007463 147.4289 329.4312 14.39545645584012
SL-16 R/B               
1 23705U 95058B   25188.83583366 -.00000255  00000+0 -10633-3 0  9999
2 23705  71.0228 334.3043 0010952 140.9512 219.2403 14.15453248533209
SL-16 R/B               
1 24298U 96051B   25188.83864621 -.00000194  00000+0 -78182-4 0  9993
2 24298  70.7676 333.4499 0014259 143.7808 216.4280 14.12409868487079
ORBVIEW 2 (SEASTAR)     
1 24883U 97037A   25188.88265741  .00000191  00000+0  82976-4 0  9992
2 24883  98.8284 342.1585 0003246  72.5646 287.5894 14.35265395473357
SL-16 R/B               
1 25400U 98043G   25189.13540199  .00000020  00000+0  27299-4 0  9996
2 25400  98.7884 136.3064 0010034  10.5855 349.5534 14.25976659404366
SL-16 R/B               
1 25407U 98045B   25188.82544871 -.00000128  00000+0 -40749-4 0  9997
2 25407  71.0121 336.4988 0006311  23.2234 336.9173 14.16142562392435
ISS (ZARYA)             
1 25544U 98067A   25189.21335687  .00007259  00000+0  13303-3 0  9995
2 25544  51.6336 202.8559 0002499 346.6817  13.4106 15.50431524518421
CZ-4B R/B               
1 25732U 99025C   25189.13941734  .00000030  00000+0  35345-4 0  9997
2 25732  98.6983 233.7182 0036522 329.5098  95.2211 14.18196194353649
OKEAN-O                 
1 25860U 99039A   25189.19112827  .00000509  00000+0  74504-4 0  9994
2 25860  97.9823 246.0591 0001872  80.3568 279.7855 14.79832494398314
SL-16 R/B               
1 25861U 99039B   25188.86782208  .00000381  00000+0  55688-4 0  9994
2 25861  98.0348 242.7994 0014257 336.4127  23.6430 14.81305820400619
DELTA 2 R/B             
1 25876U 99041E   25188.77311183  .00001325  00000+0  25314-3 0  9994
2 25876  51.7612 198.6988 0506744 346.1446  12.6002 14.10781055328449
HELIOS 1B               
1 25977U 99064A   25188.65447154  .00000935  00000+0  11218-3 0  9990
2 25977  98.1929  78.6323 0002243 111.5395 248.6058 14.86534371648840
TERRA                   
1 25994U 99068A   25189.18876192  .00000321  00000+0  74915-4 0  9993
2 25994  97.9969 246.4370 0001436 198.0288 192.2594 14.60727585359505
SL-16 R/B               
1 26070U 00006B   25189.13078076  .00000194  00000+0  12307-3 0  9997
2 26070  71.0017 252.0374 0017221 201.0101 159.0316 14.15780441313922
TITAN 4B R/B            
1 26474U 00047B   25189.21057747  .00001947  00000+0  13436-3 0  9992
2 26474  67.9904   6.7031 0046812 311.1987  48.5129 15.07314682356121
ENVISAT                 
1 27386U 02009A   25189.12071730  .00000055  00000+0  31615-4 0  9992
2 27386  98.3348 144.0999 0001366  85.6022 285.1267 14.38925853224072
IDEFIX & ARIANE 42P R/B 
1 27422U 02021B   25188.89634954  .00000152  00000+0  74625-4 0  9999
2 27422  98.5611 125.8434 0011613 182.6522 177.4601 14.30805101209015
AQUA                    
1 27424U 02022A   25189.16496097  .00000613  00000+0  13386-3 0  9995
2 27424  98.3787 147.7810 0001350  54.4120  35.3345 14.61336162233055
CZ-4B R/B               
1 27432U 02024C   25189.18508453  .00000025  00000+0  35965-4 0  9993
2 27432  98.9221 238.2809 0050079 358.3270  45.7701 14.14489973194752
MIDORI II (ADEOS-II)    
1 27597U 02056A   25189.11712782  .00000194  00000+0  94235-4 0  9997
2 27597  98.7388 141.4923 0001547  43.4458 316.6845 14.29063703175342
H-2A R/B                
1 27601U 02056E   25188.94512111  .00000158  00000+0  70146-4 0  9992
2 27601  98.2800 154.2283 0070609 170.0716 259.4494 14.33521149179045
CZ-4B R/B               
1 28059U 03049C   25188.88658112  .00000223  00000+0  63400-4 0  9996
2 28059  98.6601 169.6386 0047238 258.6094 100.9793 14.54702372151004
CZ-2C R/B               
1 28222U 04012C   25188.83725334  .00016464  00000+0  34542-3 0  9993
2 28222  97.7651 229.6773 0024506 121.3222 239.0429 15.45140989166298
